{"type": "FeatureCollection", "crs": {"type": "name", "properties": {"name": "EPSG:4326"}}, "features": [{"type": "Feature", "id": 1, "geometry": null, "properties": {"OBJECTID": 1, "Nombre": "SubDistrito: 29 Zona: TAMBORADA PUKARITA", "Shape_Length": 14180.930656230468, "Shape_Area": 2568570.2667488926}}, {"type": "Feature", "id": 2, "geometry": null, "properties": {"OBJECTID": 2, "Nombre": "SubDistrito: 30 Zona: 1ro. DE MAYO", "Shape_Length": 8325.320305149464, "Shape_Area": 2238324.123324425}}, {"type": "Feature", "id": 3, "geometry": null, "properties": {"OBJECTID": 3, "Nombre": "SubDistrito: 37 Zona: CHIQUICOLLO", "Shape_Length": 9971.713385033863, "Shape_Area": 3467287.718908778}}, {"type": "Feature", "id": 4, "geometry": null, "properties": {"OBJECTID": 4, "Nombre": "SubDistrito: 25 Zona: ARANJUEZ ALTO", "Shape_Length": 5112.318376142645, "Shape_Area": 1157588.428999195}}, {"type": "Feature", "id": 5, "geometry": null, "properties": {"OBJECTID": 5, "Nombre": "SubDistrito: 24 Zona: QUERU QUERU ALTO", "Shape_Length": 5732.676985756043, "Shape_Area": 1363386.9788877713}}, {"type": "Feature", "id": 6, "geometry": null, "properties": {"OBJECTID": 6, "Nombre": "SubDistrito: 13 Zona: LAS CUADRAS", "Shape_Length": 6140.429601567487, "Shape_Area": 1477137.4427683505}}, {"type": "Feature", "id": 7, "geometry": null, "properties": {"OBJECTID": 7, "Nombre": "SubDistrito: 22 Zona: CONDEBAMBA", "Shape_Length": 12724.54447291316, "Shape_Area": 7277514.910138791}}, {"type": "Feature", "id": 8, "geometry": null, "properties": {"OBJECTID": 8, "Nombre": "SubDistrito: 23 Zona: TEMPORAL PAMPA", "Shape_Length": 6570.289590170161, "Shape_Area": 2170535.501341118}}, {"type": "Feature", "id": 9, "geometry": null, "properties": {"OBJECTID": 9, "Nombre": "SubDistrito: 21 Zona: SARCOBAMBA", "Shape_Length": 14446.438543963372, "Shape_Area": 4982362.484334975}}, {"type": "Feature", "id": 10, "geometry": null, "properties": {"OBJECTID": 10, "Nombre": "SubDistrito: 28 Zona: COÑA COÑA", "Shape_Length": 10734.900204246193, "Shape_Area": 3437854.2284440813}}, {"type": "Feature", "id": 11, "geometry": null, "properties": {"OBJECTID": 11, "Nombre": "SubDistrito: 27 Zona: VILLA BUSCH", "Shape_Length": 9914.037982742975, "Shape_Area": 3266435.5073690605}}, {"type": "Feature", "id": 12, "geometry": null, "properties": {"OBJECTID": 12, "Nombre": "SubDistrito: 31 Zona: PUKARA GRANDE NORTE", "Shape_Length": 17030.21846073281, "Shape_Area": 5859242.950036304}}, {"type": "Feature", "id": 13, "geometry": null, "properties": {"OBJECTID": 13, "Nombre": "SubDistrito: 19 Zona: ALALAY SUD", "Shape_Length": 12029.90197229193, "Shape_Area": 4388493.168085738}}, {"type": "Feature", "id": 14, "geometry": null, "properties": {"OBJECTID": 14, "Nombre": "SubDistrito: 35 Zona: PUKARA GRANDE SUR", "Shape_Length": 18709.07427522539, "Shape_Area": 9898586.627433026}}, {"type": "Feature", "id": 15, "geometry": null, "properties": {"OBJECTID": 15, "Nombre": "SubDistrito: 33 Zona: KHARA KHARA ARRUMANI", "Shape_Length": 17658.184624786376, "Shape_Area": 6111662.696300046}}, {"type": "Feature", "id": 16, "geometry": null, "properties": {"OBJECTID": 16, "Nombre": "SubDistrito: 32 Zona: VALLE HERMOSO OESTE", "Shape_Length": 13268.917111184424, "Shape_Area": 6123133.734750631}}, {"type": "Feature", "id": 17, "geometry": null, "properties": {"OBJECTID": 17, "Nombre": "SubDistrito: 36 Zona: PUKARA GRANDE OESTE", "Shape_Length": 14575.720082447486, "Shape_Area": 5844775.924132957}}, {"type": "Feature", "id": 18, "geometry": null, "properties": {"OBJECTID": 18, "Nombre": "SubDistrito: 01 Zona: MAYORAZGO", "Shape_Length": 3082.3819176703096, "Shape_Area": 616528.8316202062}}, {"type": "Feature", "id": 19, "geometry": null, "properties": {"OBJECTID": 19, "Nombre": "SubDistrito: 03 Zona: CALA CALA", "Shape_Length": 6930.62488464029, "Shape_Area": 2547972.6216331534}}, {"type": "Feature", "id": 20, "geometry": null, "properties": {"OBJECTID": 20, "Nombre": "SubDistrito: 02 Zona: SARCO", "Shape_Length": 6808.020627835326, "Shape_Area": 1836256.5601122575}}, {"type": "Feature", "id": 21, "geometry": null, "properties": {"OBJECTID": 21, "Nombre": "SubDistrito: 04 Zona: QUERU QUERU", "Shape_Length": 5911.104560336655, "Shape_Area": 2080575.8365276023}}, {"type": "Feature", "id": 22, "geometry": null, "properties": {"OBJECTID": 22, "Nombre": "SubDistrito: 06 Zona: HIPODROMO", "Shape_Length": 7416.746850754308, "Shape_Area": 2847002.6553185047}}, {"type": "Feature", "id": 23, "geometry": null, "properties": {"OBJECTID": 23, "Nombre": "SubDistrito: 05 Zona: TUPURAYA", "Shape_Length": 4159.7887221855835, "Shape_Area": 868428.9817531741}}, {"type": "Feature", "id": 24, "geometry": null, "properties": {"OBJECTID": 24, "Nombre": "SubDistrito: 08 Zona: NORESTE", "Shape_Length": 4648.620982440096, "Shape_Area": 1112740.4206553965}}, {"type": "Feature", "id": 25, "geometry": null, "properties": {"OBJECTID": 25, "Nombre": "SubDistrito: 07 Zona: NOROESTE", "Shape_Length": 4470.589559052691, "Shape_Area": 1156324.983897769}}, {"type": "Feature", "id": 26, "geometry": null, "properties": {"OBJECTID": 26, "Nombre": "SubDistrito: 11 Zona: SUDOESTE", "Shape_Length": 6154.424622525044, "Shape_Area": 2308173.977941995}}, {"type": "Feature", "id": 27, "geometry": null, "properties": {"OBJECTID": 27, "Nombre": "SubDistrito: 12 Zona: SUDESTE", "Shape_Length": 5908.362769362009, "Shape_Area": 1033787.180915106}}, {"type": "Feature", "id": 28, "geometry": null, "properties": {"OBJECTID": 28, "Nombre": "SubDistrito: 10 Zona: CHIMBA", "Shape_Length": 6495.4486439190905, "Shape_Area": 2802074.88052204}}, {"type": "Feature", "id": 29, "geometry": null, "properties": {"OBJECTID": 29, "Nombre": "SubDistrito: 15 Zona: JAIHUAYCO", "Shape_Length": 5830.287255943149, "Shape_Area": 1742223.9642097733}}, {"type": "Feature", "id": 30, "geometry": null, "properties": {"OBJECTID": 30, "Nombre": "SubDistrito: 16 Zona: ALALAY NORTE", "Shape_Length": 16178.688355080045, "Shape_Area": 10024833.24350104}}, {"type": "Feature", "id": 31, "geometry": null, "properties": {"OBJECTID": 31, "Nombre": "SubDistrito: 17 Zona: LACMA", "Shape_Length": 6800.5799018513335, "Shape_Area": 2275138.1642882535}}, {"type": "Feature", "id": 32, "geometry": null, "properties": {"OBJECTID": 32, "Nombre": "SubDistrito: 18 Zona: TICTI", "Shape_Length": 9314.485785289378, "Shape_Area": 4006899.645855744}}, {"type": "Feature", "id": 33, "geometry": null, "properties": {"OBJECTID": 33, "Nombre": "SubDistrito: 26 Zona: MESADILLA", "Shape_Length": 10443.474896984486, "Shape_Area": 4230782.279227076}}, {"type": "Feature", "id": 34, "geometry": null, "properties": {"OBJECTID": 34, "Nombre": "SubDistrito: 09 Zona: MUYURINA", "Shape_Length": 8176.024610769387, "Shape_Area": 1766031.628998697}}, {"type": "Feature", "id": 35, "geometry": null, "properties": {"OBJECTID": 35, "Nombre": "SubDistrito: 14 Zona: LA MAICA", "Shape_Length": 15782.99708341862, "Shape_Area": 7052048.741513132}}, {"type": "Feature", "id": 36, "geometry": null, "properties": {"OBJECTID": 36, "Nombre": "SubDistrito: 20 Zona: VALLE HERMOSO", "Shape_Length": 12979.996952374393, "Shape_Area": 7573964.853417673}}, {"type": "Feature", "id": 37, "geometry": null, "properties": {"OBJECTID": 37, "Nombre": "SubDistrito: 34 Zona: USPHA USPHA", "Shape_Length": 15568.235905692834, "Shape_Area": 8902498.844688725}}]}